CCSDS_OMM_VERS = 2.0
CREATION_DATE  = 
ORIGINATOR     = 

OBJECT_NAME    = DUPLEX
OBJECT_ID      = 1998-067XS
CENTER_NAME    = EARTH
REF_FRAME      = TEME
TIME_SYSTEM    = UTC
MEAN_ELEMENT_THEORY = SGP/SGP4

EPOCH          = 2026-01-19T12:50:02.710176
MEAN_MOTION    = 15.52699559
ECCENTRICITY   = .00020816
INCLINATION    = 51.6321
RA_OF_ASC_NODE = 314.6743
ARG_OF_PERICENTER = 33.5816
MEAN_ANOMALY   = 326.5306

EPHEMERIS_TYPE = 0
CLASSIFICATION_TYPE = U
NORAD_CAT_ID   = 66906
ELEMENT_SET_NO = 999
REV_AT_EPOCH   = 748
BSTAR          = .41668554E-3
MEAN_MOTION_DOT = .25804E-3
MEAN_MOTION_DDOT = 0

CCSDS_OMM_VERS = 2.0
CREATION_DATE  = 
ORIGINATOR     = 

OBJECT_NAME    = 1998-067XT
OBJECT_ID      = 1998-067XT
CENTER_NAME    = EARTH
REF_FRAME      = TEME
TIME_SYSTEM    = UTC
MEAN_ELEMENT_THEORY = SGP/SGP4

EPOCH          = 2026-01-19T05:09:08.262144
MEAN_MOTION    = 15.56975255
ECCENTRICITY   = .00034982
INCLINATION    = 51.6307
RA_OF_ASC_NODE = 315.5363
ARG_OF_PERICENTER = 86.3289
MEAN_ANOMALY   = 273.8102

EPHEMERIS_TYPE = 0
CLASSIFICATION_TYPE = U
NORAD_CAT_ID   = 66907
ELEMENT_SET_NO = 999
REV_AT_EPOCH   = 744
BSTAR          = .11714152E-2
MEAN_MOTION_DOT = .86589E-3
MEAN_MOTION_DDOT = 0

CCSDS_OMM_VERS = 2.0
CREATION_DATE  = 
ORIGINATOR     = 

OBJECT_NAME    = 1998-067XU
OBJECT_ID      = 1998-067XU
CENTER_NAME    = EARTH
REF_FRAME      = TEME
TIME_SYSTEM    = UTC
MEAN_ELEMENT_THEORY = SGP/SGP4

EPOCH          = 2026-01-19T12:50:12.257376
MEAN_MOTION    = 15.56958710
ECCENTRICITY   = .00034255
INCLINATION    = 51.6306
RA_OF_ASC_NODE = 313.9236
ARG_OF_PERICENTER = 81.6885
MEAN_ANOMALY   = 278.4496

EPHEMERIS_TYPE = 0
CLASSIFICATION_TYPE = U
NORAD_CAT_ID   = 66908
ELEMENT_SET_NO = 999
REV_AT_EPOCH   = 749
BSTAR          = .9937091E-3
MEAN_MOTION_DOT = .73208E-3
MEAN_MOTION_DDOT = 0

CCSDS_OMM_VERS = 2.0
CREATION_DATE  = 
ORIGINATOR     = 

OBJECT_NAME    = SILVERSAT
OBJECT_ID      = 1998-067XV
CENTER_NAME    = EARTH
REF_FRAME      = TEME
TIME_SYSTEM    = UTC
MEAN_ELEMENT_THEORY = SGP/SGP4

EPOCH          = 2026-01-19T12:34:32.776608
MEAN_MOTION    = 15.57792687
ECCENTRICITY   = .00037358
INCLINATION    = 51.6304
RA_OF_ASC_NODE = 313.8517
ARG_OF_PERICENTER = 93.4823
MEAN_ANOMALY   = 266.6597

EPHEMERIS_TYPE = 0
CLASSIFICATION_TYPE = U
NORAD_CAT_ID   = 66909
ELEMENT_SET_NO = 999
REV_AT_EPOCH   = 749
BSTAR          = .11052676E-2
MEAN_MOTION_DOT = .84195E-3
MEAN_MOTION_DDOT = 0

CCSDS_OMM_VERS = 2.0
CREATION_DATE  = 
ORIGINATOR     = 

OBJECT_NAME    = 1998-067XW
OBJECT_ID      = 1998-067XW
CENTER_NAME    = EARTH
REF_FRAME      = TEME
TIME_SYSTEM    = UTC
MEAN_ELEMENT_THEORY = SGP/SGP4

EPOCH          = 2026-01-19T12:38:37.165056
MEAN_MOTION    = 15.57281851
ECCENTRICITY   = .00023229
INCLINATION    = 51.6295
RA_OF_ASC_NODE = 313.8682
ARG_OF_PERICENTER = 69.1788
MEAN_ANOMALY   = 290.9453

EPHEMERIS_TYPE = 0
CLASSIFICATION_TYPE = U
NORAD_CAT_ID   = 66910
ELEMENT_SET_NO = 999
REV_AT_EPOCH   = 749
BSTAR          = .9147257E-3
MEAN_MOTION_DOT = .6812E-3
MEAN_MOTION_DDOT = 0

CCSDS_OMM_VERS = 2.0
CREATION_DATE  = 
ORIGINATOR     = 

OBJECT_NAME    = 1998-067XX
OBJECT_ID      = 1998-067XX
CENTER_NAME    = EARTH
REF_FRAME      = TEME
TIME_SYSTEM    = UTC
MEAN_ELEMENT_THEORY = SGP/SGP4

EPOCH          = 2026-01-19T12:11:14.828928
MEAN_MOTION    = 15.58671137
ECCENTRICITY   = .00024434
INCLINATION    = 51.6292
RA_OF_ASC_NODE = 313.7419
ARG_OF_PERICENTER = 94.9192
MEAN_ANOMALY   = 265.2080

EPHEMERIS_TYPE = 0
CLASSIFICATION_TYPE = U
NORAD_CAT_ID   = 66911
ELEMENT_SET_NO = 999
REV_AT_EPOCH   = 748
BSTAR          = .13776829E-2
MEAN_MOTION_DOT = .108939E-2
MEAN_MOTION_DDOT = 0

CCSDS_OMM_VERS = 2.0
CREATION_DATE  = 
ORIGINATOR     = 

OBJECT_NAME    = 1998-067XY
OBJECT_ID      = 1998-067XY
CENTER_NAME    = EARTH
REF_FRAME      = TEME
TIME_SYSTEM    = UTC
MEAN_ELEMENT_THEORY = SGP/SGP4

EPOCH          = 2026-01-19T05:42:11.629440
MEAN_MOTION    = 15.55382536
ECCENTRICITY   = .00031813
INCLINATION    = 51.6311
RA_OF_ASC_NODE = 315.6893
ARG_OF_PERICENTER = 65.9207
MEAN_ANOMALY   = 294.2116

EPHEMERIS_TYPE = 0
CLASSIFICATION_TYPE = U
NORAD_CAT_ID   = 66912
ELEMENT_SET_NO = 999
REV_AT_EPOCH   = 743
BSTAR          = .93704698E-3
MEAN_MOTION_DOT = .65002E-3
MEAN_MOTION_DDOT = 0

