DUPLEX                  
1 66906U 98067XS  26019.53475359  .00025804  00000+0  41669-3 0  9993
2 66906  51.6321 314.6743 0002081  33.5816 326.5306 15.52699559  7482
1998-067XT              
1 66907U 98067XT  26019.21467896  .00086589  00000+0  11714-2 0  9990
2 66907  51.6307 315.5363 0003498  86.3289 273.8102 15.56975255  7446
1998-067XU              
1 66908U 98067XU  26019.53486409  .00073208  00000+0  99371-3 0  9997
2 66908  51.6306 313.9236 0003425  81.6885 278.4496 15.56958710  7496
SILVERSAT               
1 66909U 98067XV  26019.52399047  .00084195  00000+0  11053-2 0  9995
2 66909  51.6304 313.8517 0003735  93.4823 266.6597 15.57792687  7494
1998-067XW              
1 66910U 98067XW  26019.52681904  .00068120  00000+0  91473-3 0  9998
2 66910  51.6295 313.8682 0002322  69.1788 290.9453 15.57281851  7496
1998-067XX              
1 66911U 98067XX  26019.50781052  .00108939  00000+0  13777-2 0  9995
2 66911  51.6292 313.7419 0002443  94.9192 265.2080 15.58671137  7481
1998-067XY              
1 66912U 98067XY  26019.23763460  .00065002  00000+0  93705-3 0  9992
2 66912  51.6311 315.6893 0003181  65.9207 294.2116 15.55382536  7432
